{"type": "FeatureCollection", "features": [ {"type": "Feature", "properties": {"norad_id": 44476, "name": "INTELSAT 39 (IS-39)", "group": "intelsat", "lat": 0.0179578416999433, "lon": 127.89095478043949, "alt_km": 35781.213843531776, "timestamp": "2025-12-15T22:44:28.591816+00:00", "meta": {"OBJECT_NAME": "INTELSAT 39 (IS-39)", "OBJECT_ID": "2019-049B", "EPOCH": "2025-12-15T05:07:18.216192", "MEAN_MOTION": 1.0027092, "ECCENTRICITY": 0.00012261, "INCLINATION": 0.02, "RA_OF_ASC_NODE": 330.9109, "ARG_OF_PERICENTER": 168.1982, "MEAN_ANOMALY": 83.7811, "EPHEMERIS_TYPE": 0, "CLASSIFICATION_TYPE": "U", "NORAD_CAT_ID": 44476, "ELEMENT_SET_NO": 999, "REV_AT_EPOCH": 2328, "BSTAR": 0, "MEAN_MOTION_DOT": 5.4e-07, "MEAN_MOTION_DDOT": 0}, "tle": {"line1": "1 44476U 19049B   25349.21340528  .00000054  00000+0  00000+0 0  9993", "line2": "2 44476   0.0200 330.9109 0001226 168.1982  83.7811  1.00270920 23284"}}, "geometry": {"type": "Point", "coordinates": [127.89095478043949, 0.0179578416999433]}}, {"type": "Feature", "properties": {"norad_id": 46114, "name": "GALAXY 30 (G-30)", "group": "intelsat", "lat": -0.03104995130062703, "lon": -59.029539778241976, "alt_km": 35779.194854960355, "timestamp": "2025-12-15T22:44:28.591828+00:00", "meta": {"OBJECT_NAME": "GALAXY 30 (G-30)", "OBJECT_ID": "2020-056C", "EPOCH": "2025-12-15T07:35:02.904576", "MEAN_MOTION": 1.00271437, "ECCENTRICITY": 0.00020876, "INCLINATION": 0.0188, "RA_OF_ASC_NODE": 359.4433, "ARG_OF_PERICENTER": 263.343, "MEAN_ANOMALY": 170.2018, "EPHEMERIS_TYPE": 0, "CLASSIFICATION_TYPE": "U", "NORAD_CAT_ID": 46114, "ELEMENT_SET_NO": 999, "REV_AT_EPOCH": 1944, "BSTAR": 0, "MEAN_MOTION_DOT": 5.8e-07, "MEAN_MOTION_DDOT": 0}, "tle": {"line1": "1 46114U 20056C   25349.31600584  .00000058  00000+0  00000+0 0  9990", "line2": "2 46114   0.0188 359.4433 0002087 263.3430 170.2018  1.00271437 19446"}}, "geometry": {"type": "Point", "coordinates": [-59.029539778241976, -0.03104995130062703]}}, {"type": "Feature", "properties": {"norad_id": 54026, "name": "GALAXY 33 (G-33)", "group": "intelsat", "lat": -0.02696999587650714, "lon": -67.02933267825593, "alt_km": 35779.377113413786, "timestamp": "2025-12-15T22:44:28.591839+00:00", "meta": {"OBJECT_NAME": "GALAXY 33 (G-33)", "OBJECT_ID": "2022-128A", "EPOCH": "2025-12-15T08:39:38.537280", "MEAN_MOTION": 1.00272814, "ECCENTRICITY": 0.00018189, "INCLINATION": 0.0133, "RA_OF_ASC_NODE": 343.6881, "ARG_OF_PERICENTER": 275.0351, "MEAN_ANOMALY": 182.4579, "EPHEMERIS_TYPE": 0, "CLASSIFICATION_TYPE": "U", "NORAD_CAT_ID": 54026, "ELEMENT_SET_NO": 999, "REV_AT_EPOCH": 1190, "BSTAR": 0, "MEAN_MOTION_DOT": 1e-06, "MEAN_MOTION_DDOT": 0}, "tle": {"line1": "1 54026U 22128A   25349.36086270  .00000100  00000+0  00000+0 0  9996", "line2": "2 54026   0.0133 343.6881 0001818 275.0351 182.4579  1.00272814 11902"}}, "geometry": {"type": "Point", "coordinates": [-67.02933267825593, -0.02696999587650714]}}, {"type": "Feature", "properties": {"norad_id": 54027, "name": "GALAXY 34 (G-34)", "group": "intelsat", "lat": -0.026579907117699225, "lon": -62.96660479037171, "alt_km": 35781.284200405986, "timestamp": "2025-12-15T22:44:28.591852+00:00", "meta": {"OBJECT_NAME": "GALAXY 34 (G-34)", "OBJECT_ID": "2022-128B", "EPOCH": "2025-12-15T07:35:38.904000", "MEAN_MOTION": 1.0027101, "ECCENTRICITY": 0.00014748, "INCLINATION": 0.0252, "RA_OF_ASC_NODE": 328.1325, "ARG_OF_PERICENTER": 291.6247, "MEAN_ANOMALY": 169.4498, "EPHEMERIS_TYPE": 0, "CLASSIFICATION_TYPE": "U", "NORAD_CAT_ID": 54027, "ELEMENT_SET_NO": 999, "REV_AT_EPOCH": 1206, "BSTAR": 0, "MEAN_MOTION_DOT": 0, "MEAN_MOTION_DDOT": 0}, "tle": {"line1": "1 54027U 22128B   25349.31642250  .00000000  00000+0  00000+0 0  9997", "line2": "2 54027   0.0252 328.1325 0001474 291.6247 169.4498  1.00271010 12062"}}, "geometry": {"type": "Point", "coordinates": [-62.96660479037171, -0.026579907117699225]}}, {"type": "Feature", "properties": {"norad_id": 54243, "name": "GALAXY 31 (G-31)", "group": "intelsat", "lat": -0.024947062590783692, "lon": -55.0492960167144, "alt_km": 35780.545129169855, "timestamp": "2025-12-15T22:44:28.591864+00:00", "meta": {"OBJECT_NAME": "GALAXY 31 (G-31)", "OBJECT_ID": "2022-153A", "EPOCH": "2025-12-15T05:57:50.874336", "MEAN_MOTION": 1.00271245, "ECCENTRICITY": 0.00014871, "INCLINATION": 0.0132, "RA_OF_ASC_NODE": 0.5369, "ARG_OF_PERICENTER": 278.5657, "MEAN_ANOMALY": 133.5069, "EPHEMERIS_TYPE": 0, "CLASSIFICATION_TYPE": "U", "NORAD_CAT_ID": 54243, "ELEMENT_SET_NO": 999, "REV_AT_EPOCH": 528, "BSTAR": 0, "MEAN_MOTION_DOT": 0, "MEAN_MOTION_DDOT": 0}, "tle": {"line1": "1 54243U 22153A   25349.24850549  .00000000  00000+0  00000+0 0  9999", "line2": "2 54243   0.0132   0.5369 0001487 278.5657 133.5069  1.00271245  5283"}}, "geometry": {"type": "Point", "coordinates": [-55.0492960167144, -0.024947062590783692]}}, {"type": "Feature", "properties": {"norad_id": 54244, "name": "GALAXY 32 (G-32)", "group": "intelsat", "lat": -0.0005752171100350184, "lon": -25.036568270854353, "alt_km": 35775.850780079614, "timestamp": "2025-12-15T22:44:28.591876+00:00", "meta": {"OBJECT_NAME": "GALAXY 32 (G-32)", "OBJECT_ID": "2022-153B", "EPOCH": "2025-12-15T06:06:27.548928", "MEAN_MOTION": 1.00271821, "ECCENTRICITY": 0.00025766, "INCLINATION": 0.0088, "RA_OF_ASC_NODE": 336.098, "ARG_OF_PERICENTER": 340.2571, "MEAN_ANOMALY": 128.4228, "EPHEMERIS_TYPE": 0, "CLASSIFICATION_TYPE": "U", "NORAD_CAT_ID": 54244, "ELEMENT_SET_NO": 999, "REV_AT_EPOCH": 1130, "BSTAR": 0, "MEAN_MOTION_DOT": -1.53e-06, "MEAN_MOTION_DDOT": 0}, "tle": {"line1": "1 54244U 22153B   25349.25448552 -.00000153  00000+0  00000+0 0  9998", "line2": "2 54244   0.0088 336.0980 0002576 340.2571 128.4228  1.00271821 11302"}}, "geometry": {"type": "Point", "coordinates": [-25.036568270854353, -0.0005752171100350184]}}, {"type": "Feature", "properties": {"norad_id": 54741, "name": "GALAXY 35 (G-35)", "group": "intelsat", "lat": -0.005278604352624836, "lon": -27.141669145532937, "alt_km": 35782.328766980485, "timestamp": "2025-12-15T22:44:28.591888+00:00", "meta": {"OBJECT_NAME": "GALAXY 35 (G-35)", "OBJECT_ID": "2022-170A", "EPOCH": "2025-12-15T06:05:50.109216", "MEAN_MOTION": 1.00269209, "ECCENTRICITY": 0.00022648, "INCLINATION": 0.0155, "RA_OF_ASC_NODE": 343.7005, "ARG_OF_PERICENTER": 287.2968, "MEAN_ANOMALY": 171.5121, "EPHEMERIS_TYPE": 0, "CLASSIFICATION_TYPE": "U", "NORAD_CAT_ID": 54741, "ELEMENT_SET_NO": 999, "REV_AT_EPOCH": 1104, "BSTAR": 0, "MEAN_MOTION_DOT": 0, "MEAN_MOTION_DDOT": 0}, "tle": {"line1": "1 54741U 22170A   25349.25405219  .00000000  00000+0  00000+0 0  9992", "line2": "2 54741   0.0155 343.7005 0002264 287.2968 171.5121  1.00269209 11045"}}, "geometry": {"type": "Point", "coordinates": [-27.141669145532937, -0.005278604352624836]}}, {"type": "Feature", "properties": {"norad_id": 54742, "name": "GALAXY 36 (G-36)", "group": "intelsat", "lat": 0.004072286961104299, "lon": -22.981558570294357, "alt_km": 35787.04548582338, "timestamp": "2025-12-15T22:44:28.591899+00:00", "meta": {"OBJECT_NAME": "GALAXY 36 (G-36)", "OBJECT_ID": "2022-170B", "EPOCH": "2025-12-15T00:58:46.928352", "MEAN_MOTION": 1.00269065, "ECCENTRICITY": 3.73e-05, "INCLINATION": 0.0188, "RA_OF_ASC_NODE": 328.7853, "ARG_OF_PERICENTER": 103.5858, "MEAN_ANOMALY": 297.3548, "EPHEMERIS_TYPE": 0, "CLASSIFICATION_TYPE": "U", "NORAD_CAT_ID": 54742, "ELEMENT_SET_NO": 999, "REV_AT_EPOCH": 1092, "BSTAR": 0, "MEAN_MOTION_DOT": -1.65e-06, "MEAN_MOTION_DDOT": 0}, "tle": {"line1": "1 54742U 22170B   25349.04082093 -.00000165  00000+0  00000+0 0  9994", "line2": "2 54742   0.0188 328.7853 0000373 103.5858 297.3548  1.00269065 10929"}}, "geometry": {"type": "Point", "coordinates": [-22.981558570294357, 0.004072286961104299]}}, {"type": "Feature", "properties": {"norad_id": 57493, "name": "GALAXY 37 (G-37)", "group": "intelsat", "lat": -0.02855733359818755, "lon": -61.0278539453043, "alt_km": 35778.33350019646, "timestamp": "2025-12-15T22:44:28.591911+00:00", "meta": {"OBJECT_NAME": "GALAXY 37 (G-37)", "OBJECT_ID": "2023-112A", "EPOCH": "2025-12-15T07:35:38.904000", "MEAN_MOTION": 1.00272733, "ECCENTRICITY": 0.00020161, "INCLINATION": 0.0225, "RA_OF_ASC_NODE": 53.4024, "ARG_OF_PERICENTER": 216.2999, "MEAN_ANOMALY": 161.4383, "EPHEMERIS_TYPE": 0, "CLASSIFICATION_TYPE": "U", "NORAD_CAT_ID": 57493, "ELEMENT_SET_NO": 999, "REV_AT_EPOCH": 869, "BSTAR": 0, "MEAN_MOTION_DOT": 6.9e-07, "MEAN_MOTION_DDOT": 0}, "tle": {"line1": "1 57493U 23112A   25349.31642250  .00000069  00000+0  00000+0 0  9996", "line2": "2 57493   0.0225  53.4024 0002016 216.2999 161.4383  1.00272733  8698"}}, "geometry": {"type": "Point", "coordinates": [-61.0278539453043, -0.02855733359818755]}}]}